{
  "type": "FeatureCollection",
  "generator": "overpass-turbo",
  "copyright": "The data included in this document is from www.openstreetmap.org. The data is made available under ODbL.",
  "timestamp": "2025-04-19T15:34:28Z",
  "features": [
    {
      "type": "Feature",
      "properties": {
        "@id": "relation/3061846",
        "ISO3166-2": "EG-ALX",
        "admin_level": "4",
        "alt_name:ar": "محافظة الإسكندرية",
        "alt_name:de": "Gouvernement al-Iskandariyya",
        "alt_name:en": "Alexandria Governorate",
        "alt_name:fa": "استان اسکندریه",
        "alt_name:fr": "Gouvernorat d'Alexandrie",
        "alt_name:lt": "Aleksandrijos muchafaza",
        "alt_name:ru": "Александрия (мухафаза)",
        "alt_name:ur": "محافظہ اسکندریہ",
        "boundary": "administrative",
        "name": "الإسكندرية",
        "name:ar": "الإسكندرية",
        "name:arz": "محافظة اسكندريه",
        "name:azb": "اسکندریه اوستانی",
        "name:be": "Александрыя (мухафаза)",
        "name:be-tarask": "Александрыя (мугафаза)",
        "name:bg": "Александрия (област)",
        "name:bs": "Aleksandrija (guvernorat)",
        "name:ca": "Governació d'Alexandria",
        "name:ceb": "Muḩāfaz̧at al Iskandarīyah",
        "name:cs": "Alexandrie (guvernorát)",
        "name:da": "Alexandria (guvernement)",
        "name:de": "Alexandria",
        "name:el": "Κυβερνείο Αλεξάνδρειας",
        "name:en": "Alexandria",
        "name:eo": "Provinco Aleksandrio",
        "name:es": "Gobernación de Alejandría",
        "name:et": "Aleksandria kubernerkond",
        "name:fa": "اسکندریه",
        "name:fi": "Aleksandrian kuvernementti",
        "name:fr": "Alexandrie",
        "name:he": "אלכסנדריה (מחוז)",
        "name:hi": "सिकन्दरिया मुहाफ़ज़ाह",
        "name:hu": "Alexandria",
        "name:hy": "Ալեքսանդրիա (մուհաֆազա)",
        "name:id": "Kegubernuran Al Iskandariyah",
        "name:it": "Governatorato di Alessandria",
        "name:ja": "アレクサンドリア県",
        "name:ka": "ალექსანდრიის მუჰაფაზა",
        "name:ko": "알렉산드리아주",
        "name:la": "Alexandria (provincia Aegyptia)",
        "name:lad": "Alejandria (vilayet)",
        "name:nan": "Alexandria Séng",
        "name:nl": "Alexandrië (gouvernement)",
        "name:no": "Guvernementet Alexandria",
        "name:pl": "Aleksandria (muhafaza)",
        "name:pnb": "صوبہ اسکندریہ",
        "name:pt": "Alexandria (província egípcia)",
        "name:ro": "Guvernoratul Alexandria",
        "name:ru": "Александрия",
        "name:sco": "Alexandria Govrenorate",
        "name:sh": "Aleksandrija (muhafaza)",
        "name:sk": "Alexandria",
        "name:so": "Alexandria Governorate",
        "name:sr": "Александрија (гувернорат)",
        "name:sv": "Alexandria (guvernement)",
        "name:sw": "Mkoa wa Aleksandria",
        "name:tg": "Вилояти Искандария",
        "name:tr": "İskenderiye (il)",
        "name:uk": "Александрія (губернаторство)",
        "name:ur": "اسکندریہ",
        "name:vi": "Alexandria (tỉnh)",
        "name:war": "Alexandria (lalawigan)",
        "name:wuu": "亚历山大省",
        "name:yue": "亞歷山大省",
        "name:zh": "亞歷山大省",
        "name:zu": "Alexandria Governorate",
        "sorting_name": "الإسكندرية",
        "sorting_name:ar": "الإسكندرية",
        "sorting_name:arc": "ܐܠܟܣܢܕܪܝܐ",
        "sorting_name:azb": "ایسکندریه",
        "sorting_name:fa": "اسکندریه",
        "sorting_name:pnb": "اسکندریہ",
        "sorting_name:ps": "اسکندریه",
        "sorting_name:sd": "اسڪندريہ",
        "sorting_name:syc": "ܐܠܟܣܢܕܪܝܐ",
        "sorting_name:ur": "اسکندریہ",
        "type": "boundary",
        "wikidata": "Q29943",
        "wikipedia": "ar:محافظة الإسكندرية",
        "wikipedia:ar": "محافظة الإسكندرية"
      },
      "geometry": {
        "type": "Polygon",
        "coordinates": [
          [
            [
              30.0873103,
              31.3145241
            ],
            [
              30.0842845,
              31.590323
            ],
            [
              29.975861,
              31.5276444
            ],
            [
              29.9571557,
              31.5155923
            ],
            [
              29.9040678,
              31.477642
            ],
            [
              29.7361065,
              31.3709731
            ],
            [
              29.6602547,
              31.3172087
            ],
            [
              29.4716069,
              31.2350264
            ],
            [
              29.5234367,
              31.1275122
            ],
            [
              29.5875558,
              31.0000466
            ],
            [
              29.5922432,
              30.9907216
            ],
            [
              29.6032434,
              30.7528237
            ],
            [
              29.6082489,
              30.5972468
            ],
            [
              29.6120411,
              30.4668843
            ],
            [
              29.6174181,
              30.3596751
            ],
            [
              29.7254185,
              30.464864
            ],
            [
              29.9906743,
              30.5793526
            ],
            [
              29.9352973,
              30.6984679
            ],
            [
              29.9618782,
              30.7275098
            ],
            [
              29.8688449,
              30.8692606
            ],
            [
              29.914254,
              30.895875
            ],
            [
              30.0155939,
              31.1085236
            ],
            [
              30.0931217,
              31.1966713
            ],
            [
              30.0876634,
              31.2822838
            ],
            [
              30.0873672,
              31.3093235
            ],
            [
              30.0873103,
              31.3145241
            ]
          ]
        ]
      },
      "id": "relation/3061846"
    },
    {
      "type": "Feature",
      "properties": {
        "@id": "node/27565020",
        "@relations": [
          {
            "role": "admin_centre",
            "rel": 3061846,
            "reltags": {
              "ISO3166-2": "EG-ALX",
              "admin_level": "4",
              "alt_name:ar": "محافظة الإسكندرية",
              "alt_name:de": "Gouvernement al-Iskandariyya",
              "alt_name:en": "Alexandria Governorate",
              "alt_name:fa": "استان اسکندریه",
              "alt_name:fr": "Gouvernorat d'Alexandrie",
              "alt_name:lt": "Aleksandrijos muchafaza",
              "alt_name:ru": "Александрия (мухафаза)",
              "alt_name:ur": "محافظہ اسکندریہ",
              "boundary": "administrative",
              "name": "الإسكندرية",
              "name:ar": "الإسكندرية",
              "name:arz": "محافظة اسكندريه",
              "name:azb": "اسکندریه اوستانی",
              "name:be": "Александрыя (мухафаза)",
              "name:be-tarask": "Александрыя (мугафаза)",
              "name:bg": "Александрия (област)",
              "name:bs": "Aleksandrija (guvernorat)",
              "name:ca": "Governació d'Alexandria",
              "name:ceb": "Muḩāfaz̧at al Iskandarīyah",
              "name:cs": "Alexandrie (guvernorát)",
              "name:da": "Alexandria (guvernement)",
              "name:de": "Alexandria",
              "name:el": "Κυβερνείο Αλεξάνδρειας",
              "name:en": "Alexandria",
              "name:eo": "Provinco Aleksandrio",
              "name:es": "Gobernación de Alejandría",
              "name:et": "Aleksandria kubernerkond",
              "name:fa": "اسکندریه",
              "name:fi": "Aleksandrian kuvernementti",
              "name:fr": "Alexandrie",
              "name:he": "אלכסנדריה (מחוז)",
              "name:hi": "सिकन्दरिया मुहाफ़ज़ाह",
              "name:hu": "Alexandria",
              "name:hy": "Ալեքսանդրիա (մուհաֆազա)",
              "name:id": "Kegubernuran Al Iskandariyah",
              "name:it": "Governatorato di Alessandria",
              "name:ja": "アレクサンドリア県",
              "name:ka": "ალექსანდრიის მუჰაფაზა",
              "name:ko": "알렉산드리아주",
              "name:la": "Alexandria (provincia Aegyptia)",
              "name:lad": "Alejandria (vilayet)",
              "name:nan": "Alexandria Séng",
              "name:nl": "Alexandrië (gouvernement)",
              "name:no": "Guvernementet Alexandria",
              "name:pl": "Aleksandria (muhafaza)",
              "name:pnb": "صوبہ اسکندریہ",
              "name:pt": "Alexandria (província egípcia)",
              "name:ro": "Guvernoratul Alexandria",
              "name:ru": "Александрия",
              "name:sco": "Alexandria Govrenorate",
              "name:sh": "Aleksandrija (muhafaza)",
              "name:sk": "Alexandria",
              "name:so": "Alexandria Governorate",
              "name:sr": "Александрија (гувернорат)",
              "name:sv": "Alexandria (guvernement)",
              "name:sw": "Mkoa wa Aleksandria",
              "name:tg": "Вилояти Искандария",
              "name:tr": "İskenderiye (il)",
              "name:uk": "Александрія (губернаторство)",
              "name:ur": "اسکندریہ",
              "name:vi": "Alexandria (tỉnh)",
              "name:war": "Alexandria (lalawigan)",
              "name:wuu": "亚历山大省",
              "name:yue": "亞歷山大省",
              "name:zh": "亞歷山大省",
              "name:zu": "Alexandria Governorate",
              "sorting_name": "الإسكندرية",
              "sorting_name:ar": "الإسكندرية",
              "sorting_name:arc": "ܐܠܟܣܢܕܪܝܐ",
              "sorting_name:azb": "ایسکندریه",
              "sorting_name:fa": "اسکندریه",
              "sorting_name:pnb": "اسکندریہ",
              "sorting_name:ps": "اسکندریه",
              "sorting_name:sd": "اسڪندريہ",
              "sorting_name:syc": "ܐܠܟܣܢܕܪܝܐ",
              "sorting_name:ur": "اسکندریہ",
              "type": "boundary",
              "wikidata": "Q29943",
              "wikipedia": "ar:محافظة الإسكندرية",
              "wikipedia:ar": "محافظة الإسكندرية"
            }
          }
        ]
      },
      "geometry": {
        "type": "Point",
        "coordinates": [
          29.8951716,
          31.1991806
        ]
      },
      "id": "node/27565020"
    }
  ]
}